     3.04           N: GNSS NAV DATA    M: MIXED            RINEX VERSION / TYPE
ssrcrin-15.6.1x                         20250101 024500 UTC PGM / RUN BY / DATE 
    18                                                      LEAP SECONDS        
                                                            END OF HEADER       
S36 2025 01 01 02 43 44 0.000000000000E+00 0.000000000000E+00 2.691010000000E+05
     4.200368800000E+04 0.000000000000E+00 0.000000000000E+00 6.300000000000E+01
     3.674846960000E+03 0.000000000000E+00 0.000000000000E+00 3.276700000000E+04
     0.000000000000E+00 0.000000000000E+00 0.000000000000E+00 2.170000000000E+02
S23 2025 01 01 02 45 36 0.000000000000E+00 0.000000000000E+00 2.691480000000E+05
     3.866796400000E+04 0.000000000000E+00 0.000000000000E+00 6.300000000000E+01
     1.681330800000E+04 0.000000000000E+00 0.000000000000E+00 3.276700000000E+04
     0.000000000000E+00 0.000000000000E+00 0.000000000000E+00 6.500000000000E+01
S36 2025 01 01 02 46 08 0.000000000000E+00 0.000000000000E+00 2.691770000000E+05
     4.200368800000E+04 0.000000000000E+00 0.000000000000E+00 6.300000000000E+01
     3.674846960000E+03 0.000000000000E+00 0.000000000000E+00 3.276700000000E+04
     0.000000000000E+00 0.000000000000E+00 0.000000000000E+00 2.180000000000E+02
S23 2025 01 01 02 47 44 0.000000000000E+00 0.000000000000E+00 2.692750000000E+05
     3.866796400000E+04 0.000000000000E+00 0.000000000000E+00 6.300000000000E+01
     1.681330800000E+04 0.000000000000E+00 0.000000000000E+00 3.276700000000E+04
     0.000000000000E+00 0.000000000000E+00 0.000000000000E+00 6.600000000000E+01
S36 2025 01 01 02 48 48 0.000000000000E+00 0.000000000000E+00 2.693330000000E+05
     4.200368800000E+04 0.000000000000E+00 0.000000000000E+00 6.300000000000E+01
     3.674846960000E+03 0.000000000000E+00 0.000000000000E+00 3.276700000000E+04
     0.000000000000E+00 0.000000000000E+00 0.000000000000E+00 2.190000000000E+02
E18 2025 01 01 02 30 00 9.478643769398E-04 4.283151611162E-11 0.000000000000E+00
     6.600000000000E+01 2.165625000000E+01 7.190299504836E-09-2.294429216987E-01
     4.563480615616E-07 1.621176934568E-01 5.669891834259E-06 5.289323329926E+03
     2.682000000000E+05 2.039596438408E-06-2.841197382887E+00-1.126900315285E-06
     8.635250942234E-01 2.055937500000E+02 2.772375092345E+00-1.088581058056E-08
    -1.560779298437E-10 5.170000000000E+02 2.347000000000E+03
     3.120000000000E+00 1.300000000000E+02-3.492459654808E-09-3.492459654808E-09
     2.693940000000E+05
S23 2025 01 01 02 49 52 0.000000000000E+00 0.000000000000E+00 2.694000000000E+05
     3.866796400000E+04 0.000000000000E+00 0.000000000000E+00 6.300000000000E+01
     1.681330800000E+04 0.000000000000E+00 0.000000000000E+00 3.276700000000E+04
     0.000000000000E+00 0.000000000000E+00 0.000000000000E+00 6.700000000000E+01
E18 2025 01 01 02 40 00 9.478899883106E-04 4.283151611162E-11 0.000000000000E+00
     6.700000000000E+01 2.309375000000E+01 6.800997574562E-09-1.484867643612E-01
     5.681067705154E-07 1.621178279165E-01 5.742534995079E-06 5.289324230194E+03
     2.688000000000E+05 2.641230821609E-06-2.841206480774E+00-9.518116712570E-07
     8.635279220441E-01 2.012187500000E+02 2.772375019199E+00-1.004648990520E-08
    -1.825076021742E-10 5.170000000000E+02 2.347000000000E+03
     3.120000000000E+00 1.300000000000E+02-3.492459654808E-09-3.492459654808E-09
     2.694650000000E+05
E36 2025 01 01 02 40 00-3.328063758090E-04-5.272227099340E-12 0.000000000000E+00
     6.700000000000E+01 1.632500000000E+02 2.819045996010E-09-2.870444854510E+00
     7.715076208115E-06 3.694718470797E-04 3.594905138016E-07 5.440605201721E+03
     2.688000000000E+05-5.215406417847E-08-1.775665574844E+00 1.490116119385E-08
     9.996703759180E-01 3.506562500000E+02-1.004254678415E+00-5.651663985919E-09
     3.296565886630E-10 5.170000000000E+02 2.347000000000E+03
     3.120000000000E+00 0.000000000000E+00 1.629814505577E-09 3.026798367500E-09
     2.694650000000E+05
E34 2025 01 01 02 40 00-1.550151500851E-04-2.188471626141E-12 0.000000000000E+00
     6.700000000000E+01 1.433125000000E+02 2.753328972918E-09-2.494480961693E+00
     6.817281246185E-06 1.887595281005E-04-1.899898052216E-07 5.440612174988E+03
     2.688000000000E+05-3.539025783539E-08-1.777530230709E+00 8.940696716309E-08
     9.994958644203E-01 3.621562500000E+02-2.164405925612E+00-5.705951961517E-09
     3.221562762449E-10 5.170000000000E+02 2.347000000000E+03
     3.120000000000E+00 0.000000000000E+00 4.656612873077E-10 2.095475792885E-09
     2.694650000000E+05
E11 2025 01 01 02 40 00-6.237509660423E-05-2.197708681706E-10-5.204170427930E-18
     6.700000000000E+01 1.692500000000E+02 2.834046620846E-09 3.058663278700E+00
     7.819384336472E-06 2.605612389743E-04 2.626329660416E-07 5.440604366302E+03
     2.688000000000E+05-8.568167686462E-08-1.774992086859E+00-5.960464477539E-08
     9.965688784082E-01 3.525312500000E+02 1.034705894625E-01-5.732024476113E-09
     3.139416483584E-10 5.170000000000E+02 2.347000000000E+03
     3.120000000000E+00 0.000000000000E+00-1.699663698673E-08-1.746229827404E-08
     2.694850000000E+05
S36 2025 01 01 02 51 12 0.000000000000E+00 0.000000000000E+00 2.694850000000E+05
     4.200368800000E+04 0.000000000000E+00 0.000000000000E+00 6.300000000000E+01
     3.674846960000E+03 0.000000000000E+00 0.000000000000E+00 3.276700000000E+04
     0.000000000000E+00 0.000000000000E+00 0.000000000000E+00 2.200000000000E+02
S23 2025 01 01 02 52 00 0.000000000000E+00 0.000000000000E+00 2.695260000000E+05
     3.866796400000E+04 0.000000000000E+00 0.000000000000E+00 6.300000000000E+01
     1.681330800000E+04 0.000000000000E+00 0.000000000000E+00 3.276700000000E+04
     0.000000000000E+00 0.000000000000E+00 0.000000000000E+00 6.800000000000E+01
E36 2025 01 01 02 40 00-3.328080638312E-04-5.272227099340E-12 0.000000000000E+00
     6.700000000000E+01 1.632500000000E+02 2.819045996010E-09-2.870444854510E+00
     7.715076208115E-06 3.694718470797E-04 3.594905138016E-07 5.440605201721E+03
     2.688000000000E+05-5.215406417847E-08-1.775665574844E+00 1.490116119385E-08
     9.996703759180E-01 3.506562500000E+02-1.004254678415E+00-5.651663985919E-09
     3.296565886630E-10 2.580000000000E+02 2.347000000000E+03
     3.120000000000E+00 0.000000000000E+00 1.629814505577E-09 0.000000000000E+00
     2.695400000000E+05
E34 2025 01 01 02 40 00-1.550170709379E-04-2.188471626141E-12 0.000000000000E+00
     6.700000000000E+01 1.433125000000E+02 2.753328972918E-09-2.494480961693E+00
     6.817281246185E-06 1.887595281005E-04-1.899898052216E-07 5.440612174988E+03
     2.688000000000E+05-3.539025783539E-08-1.777530230709E+00 8.940696716309E-08
     9.994958644203E-01 3.621562500000E+02-2.164405925612E+00-5.705951961517E-09
     3.221562762449E-10 2.580000000000E+02 2.347000000000E+03
     3.120000000000E+00 0.000000000000E+00 4.656612873077E-10 0.000000000000E+00
     2.695400000000E+05
E11 2025 01 01 02 40 00-6.237474735826E-05-2.197708681706E-10-5.204170427930E-18
     6.700000000000E+01 1.692500000000E+02 2.834046620846E-09 3.058663278700E+00
     7.819384336472E-06 2.605612389743E-04 2.626329660416E-07 5.440604366302E+03
     2.688000000000E+05-8.568167686462E-08-1.774992086859E+00-5.960464477539E-08
     9.965688784082E-01 3.525312500000E+02 1.034705894625E-01-5.732024476113E-09
     3.139416483584E-10 2.580000000000E+02 2.347000000000E+03
     3.120000000000E+00 0.000000000000E+00-1.699663698673E-08 0.000000000000E+00
     2.695400000000E+05
E06 2025 01 01 02 40 00-6.518326699734E-05-4.419575816428E-12 0.000000000000E+00
     6.700000000000E+01-1.589062500000E+02 2.707969940675E-09-5.123967988348E-01
    -7.372349500656E-06 4.494526656345E-04 1.213885843754E-05 5.440615736008E+03
     2.688000000000E+05-1.862645149231E-08 3.159134712013E-01-2.980232238770E-08
     9.568403492241E-01 8.084375000000E+01 1.984775705372E+00-5.173786937564E-09
     2.725113511916E-10 5.170000000000E+02 2.347000000000E+03
     3.120000000000E+00 0.000000000000E+00-2.328306436539E-10 1.629814505577E-09
     2.695550000000E+05
E06 2025 01 01 02 40 00-6.518542068079E-05-4.419575816428E-12 0.000000000000E+00
     6.700000000000E+01-1.589062500000E+02 2.707969940675E-09-5.123967988348E-01
    -7.372349500656E-06 4.494526656345E-04 1.213885843754E-05 5.440615736008E+03
     2.688000000000E+05-1.862645149231E-08 3.159134712013E-01-2.980232238770E-08
     9.568403492241E-01 8.084375000000E+01 1.984775705372E+00-5.173786937564E-09
     2.725113511916E-10 2.580000000000E+02 2.347000000000E+03
     3.120000000000E+00 0.000000000000E+00-2.328306436539E-10 0.000000000000E+00
     2.695900000000E+05
S36 2025 01 01 02 53 52 0.000000000000E+00 0.000000000000E+00 2.696380000000E+05
     4.200368800000E+04 0.000000000000E+00 0.000000000000E+00 6.300000000000E+01
     3.674846960000E+03 0.000000000000E+00 0.000000000000E+00 3.276700000000E+04
     0.000000000000E+00 0.000000000000E+00 0.000000000000E+00 2.210000000000E+02
S23 2025 01 01 02 54 08 0.000000000000E+00 0.000000000000E+00 2.696510000000E+05
     3.866796400000E+04 0.000000000000E+00 0.000000000000E+00 6.300000000000E+01
     1.681330800000E+04 0.000000000000E+00 0.000000000000E+00 3.276700000000E+04
     0.000000000000E+00 0.000000000000E+00 0.000000000000E+00 6.900000000000E+01
E18 2025 01 01 02 40 00 9.478898718953E-04 4.284572696633E-11 0.000000000000E+00
     6.700000000000E+01 2.309375000000E+01 6.800997574562E-09-1.484867643612E-01
     5.681067705154E-07 1.621178279165E-01 5.742534995079E-06 5.289324230194E+03
     2.688000000000E+05 2.641230821609E-06-2.841206480774E+00-9.518116712570E-07
     8.635279220441E-01 2.012187500000E+02 2.772375019199E+00-1.004648990520E-08
    -1.825076021742E-10 2.580000000000E+02 2.347000000000E+03
     3.120000000000E+00 1.600000000000E+01-3.492459654808E-09 0.000000000000E+00
     2.697200000000E+05
S23 2025 01 01 02 56 16 0.000000000000E+00 0.000000000000E+00 2.697770000000E+05
     3.866796400000E+04 0.000000000000E+00 0.000000000000E+00 6.300000000000E+01
     1.681330800000E+04 0.000000000000E+00 0.000000000000E+00 3.276700000000E+04
     0.000000000000E+00 0.000000000000E+00 0.000000000000E+00 7.000000000000E+01
S36 2025 01 01 02 56 32 0.000000000000E+00 0.000000000000E+00 2.697940000000E+05
     4.200368800000E+04 0.000000000000E+00 0.000000000000E+00 6.300000000000E+01
     3.674846960000E+03 0.000000000000E+00 0.000000000000E+00 3.276700000000E+04
     0.000000000000E+00 0.000000000000E+00 0.000000000000E+00 2.220000000000E+02
S23 2025 01 01 02 58 08 0.000000000000E+00 0.000000000000E+00 2.699020000000E+05
     3.866796400000E+04 0.000000000000E+00 0.000000000000E+00 6.300000000000E+01
     1.681330800000E+04 0.000000000000E+00 0.000000000000E+00 3.276700000000E+04
     0.000000000000E+00 0.000000000000E+00 0.000000000000E+00 7.100000000000E+01
S36 2025 01 01 02 58 56 0.000000000000E+00 0.000000000000E+00 2.699460000000E+05
     4.200368800000E+04 0.000000000000E+00 0.000000000000E+00 6.300000000000E+01
     3.674846960000E+03 0.000000000000E+00 0.000000000000E+00 3.276700000000E+04
     0.000000000000E+00 0.000000000000E+00 0.000000000000E+00 2.230000000000E+02
E04 2025 01 01 02 40 00-1.210927148350E-04-9.535483513901E-12 0.000000000000E+00
     6.700000000000E+01-1.740000000000E+02 2.569392739807E-09-2.676442371151E+00
    -8.100643754005E-06 1.052560983226E-04 1.225620508194E-05 5.440618635178E+03
     2.688000000000E+05 2.980232238770E-08 3.135264789735E-01-1.117587089539E-08
     9.636166252660E-01 8.225000000000E+01-1.739801772402E+00-5.133428113600E-09
     2.510818871398E-10 5.170000000000E+02 2.347000000000E+03
     3.120000000000E+00 0.000000000000E+00-6.286427378654E-09-6.053596735001E-09
     2.699750000000E+05
